KAITUO 1B               
1 40912U 15049P   17306.92219234  .00001912  00000-0  96731-4 0  9997
2 40912  97.4515 312.5571 0017428  79.6681 347.9532 15.18121618117334
TIANWANG 1C (TW-1C)     
1 40926U 15051B   17306.83727475  .00010030  00000-0  21196-3 0  9999
2 40926  97.2156 345.4165 0011916  34.8353  14.7858 15.45287449118311
TIANWANG 1B (TW-1B)     
1 40927U 15051C   17306.86934028  .00009597  00000-0  21092-3 0  9998
2 40927  97.2241 345.4020 0012272  43.3067 314.6986 15.44135401118245
TIANWANG 1A (TW-1A)     
1 40928U 15051D   17306.86563834  .00004057  00000-0  11292-3 0  9999
2 40928  97.2135 340.1741 0014074  62.5452  59.6296 15.37287767117999
LAPAN-A2 (IO-86)        
1 40931U 15052B   17304.82330553  .00000673  00000-0  46403-5 0  9992
2 40931   6.0007 338.4537 0013793  15.7322 344.3474 14.76551055113191
LQSAT                   
1 40958U 15057A   17306.82634255  .00000048  00000-0  15280-4 0  9998
2 40958  97.9665  19.6373 0018069 347.1250  12.9479 14.72997000111526
CHUBUSAT-2              
1 41338U 16012B   17306.45186557  .00000500  00000-0  32580-4 0  9994
2 41338  31.0041 314.0702 0013871 348.1329  11.8978 14.99854299 93766
CHUBUSAT-3              
1 41339U 16012C   17306.42802193  .00000547  00000-0  36100-4 0  9996
2 41339  31.0106 313.1495 0013584 353.5479   6.4971 15.00051596 93748
OUFTI-1                 
1 41458U 16025C   17306.87770924  .00003636  00000-0  19459-3 0  9996
2 41458  98.1689 352.3464 0172436 185.6728 174.2532 15.03843879 83410
E-ST@R-II               
1 41459U 16025D   17306.84847892  .00001800  00000-0  98946-4 0  9993
2 41459  98.1716 352.2399 0173611 185.7561 174.1710 15.03636291 83404
AAUSAT 4                
1 41460U 16025E   17306.88801687  .00003273  00000-0  17558-3 0  9996
2 41460  98.1617 352.4811 0165267 183.4609 176.5498 15.04751698 83446
NUSAT 1 (LO-87)         
1 41557U 16033B   17306.91102648  .00002002  00000-0  76785-4 0  9994
2 41557  97.4551  26.4031 0012773 233.4396 126.5668 15.27630360 79600
BEESAT-4                
1 41619U 16040W   17306.87215907  .00001994  00000-0  92026-4 0  9994
2 41619  97.4474   7.8455 0010464 307.9606  52.0684 15.21365946 63672
PRATHAM                 
1 41783U 16059A   17306.80825783  .00000099  00000-0  28596-4 0  9994
2 41783  98.1510   6.6292 0034919  86.5005 274.0189 14.62874423 58863
ALSAT 1N                
1 41789U 16059G   17306.75014055  .00000156  00000-0  38663-4 0  9996
2 41789  98.1521   7.3430 0029909  80.0687 280.3872 14.64094865 58888
NAYIF-1 (EO-88)         
1 42017U 17008BX  17306.84565762  .00002175  00000-0  93733-4 0  9994
2 42017  97.4801   7.9610 0008233  95.3532 264.8644 15.23631346 39595
LILACSAT-1              
1 42725U 98067ME  17306.92120030  .00021229  00000-0  26430-3 0  9998
2 42725  51.6391  63.6646 0005127 103.8251 256.3313 15.59871791 25118
MAX VALIER SAT          
1 42778U 17036P   17306.74560868  .00001435  00000-0  68164-4 0  9998
2 42778  97.4361   4.8663 0014012 137.7388 222.4930 15.20762633 20089
